OBJECT_NAME,OBJECT_ID,EPOCH,MEAN_MOTION,ECCENTRICITY,INCLINATION,RA_OF_ASC_NODE,ARG_OF_PERICENTER,MEAN_ANOMALY,EPHEMERIS_TYPE,CLASSIFICATION_TYPE,NORAD_CAT_ID,ELEMENT_SET_NO,REV_AT_EPOCH,BSTAR,MEAN_MOTION_DOT,MEAN_MOTION_DDOT
SAUDISAT 1C (SO-50),2002-058C,2026-07-15T00:06:13.953024,14.83098196,.0074537,64.5518,42.9159,257.3021,101.9746,0,U,27607,999,26858,.62404E-4,.376E-5,0
SAUDISAT 2,2004-025F,2026-07-14T23:38:56.781024,14.56698195,.0024056,98.5520,196.6871,208.8633,151.1235,0,U,28371,999,16979,.33486E-4,.1E-5,0
SAUDISAT 3,2007-012B,2026-07-14T20:49:07.691232,14.71440220,.00155742,98.1467,146.2884,135.6886,224.5570,0,U,31118,999,3181,.23873851E-4,.97E-6,0
PISAT,2016-059B,2026-07-15T00:04:07.080672,14.69029521,.0030441,97.8191,195.2619,115.4250,245.0112,0,U,41784,999,52382,.84679E-4,.453E-5,0
FLYING LAPTOP,2017-042G,2026-07-15T04:19:17.959872,15.01312154,.0019704,97.4801,350.6592,32.5803,327.6633,0,U,42831,999,49065,.14435E-3,.1807E-4,0
SALSAT,2020-068K,2026-07-15T00:09:24.300864,15.30170520,.0009152,97.8854,200.7735,193.6321,166.4672,0,U,46495,999,31961,.14518E-3,.4157E-4,0
